NUSAT-1 (FRESCO)        
1 41557U 16033B   22159.50664413  .00007683  00000+0  23188-3 0  9991
2 41557  97.3874 257.1885 0011768  56.8592 359.6555 15.34491470336015
BEESAT-4                
1 41619U 16040W   22159.09578272  .00010119  00000+0  34097-3 0  9998
2 41619  97.2173 209.9763 0011098 143.6719 216.5278 15.30872257319293
CAS-2T & KS-1Q          
1 41847U 16066G   22159.43967459  .00000363  00000+0  65402-4 0  9991
2 41847  98.5512 224.1196 0362872 236.7443 119.8486 14.38569196293056
NAYIF-1 (EO-88)         
1 42017U 17008BX  22159.10886980  .00011144  00000+0  33721-3 0  9998
2 42017  97.2689 225.3599 0003363 270.6649  89.4209 15.34351431295649
ZHUHAI-1 02 (CAS-4B)    
1 42759U 17034B   22159.34247128  .00002334  00000+0  14696-3 0  9992
2 42759  43.0192  22.9185 0009612 239.8440 289.6456 15.11837624274970
ZHUHAI-1 01 (CAS-4A)    
1 42761U 17034D   22159.10836600  .00002114  00000+0  13402-3 0  9998
2 42761  43.0185  23.0022 0009997 239.6725 256.2841 15.11927747274948
MAX VALIER SAT          
1 42778U 17036P   22159.08326118  .00005818  00000+0  22286-3 0  9997
2 42778  97.2058 200.5068 0010635  10.9225 349.2243 15.26853731275479
RADFXSAT (FOX-1B)       
1 43017U 17073E   22159.25269545  .00001481  00000+0  11655-3 0  9994
2 43017  97.6765  53.8222 0247850 217.7252 140.6360 14.81347245245753
FOX-1D (AO-92)          
1 43137U 18004AC  22158.67332519  .00006294  00000+0  22443-3 0  9993
2 43137  97.3682 233.9186 0008410  47.8125 312.3828 15.29221325244859
DIWATA-2B               
1 43678U 18084H   22159.39666505  .00000637  00000+0  68316-4 0  9991
2 43678  97.9693 292.5559 0008922 321.9203  38.1403 14.92156985196501
ES'HAIL 2               
1 43700U 18090A   22158.90590578  .00000157  00000+0  00000+0 0  9994
2 43700   0.0173 346.9019 0001220  94.3874 166.9048  1.00269677 12936
FOX-1CLIFF (AO-95)      
1 43770U 18099N   22159.42937493  .00000889  00000+0  83414-4 0  9996
2 43770  97.6211 226.0137 0012945 309.6834  50.3245 14.96395708191668
ITASAT 1                
1 43786U 18099AE  22159.42355505  .00000850  00000+0  79643-4 0  9998
2 43786  97.6240 226.9216 0013420 302.1304  57.8615 14.96550219191701
JY1SAT (JO-97)          
1 43803U 18099AX  22159.44428576  .00001358  00000+0  12278-3 0  9993
2 43803  97.6193 226.6946 0013452 299.5611  60.4270 14.97028197191725
UWE-4                   
1 43880U 18111E   22159.45053817  .00001124  00000+0  99768-4 0  9997
2 43880  97.6694  65.9193 0012199 358.3655   1.7526 14.98109773186359
NEXUS (FO-99)           
1 43937U 19003F   22159.08170096  .00008182  00000+0  27838-3 0  9998
2 43937  97.1309 192.7988 0021039 181.7991 178.3178 15.30462698188547
PSAT2 (NO-104)          
1 44354U 19036R   22159.51793090  .00057998 -56941-5  52604-3 0  9991
2 44354  28.5261 240.2593 0233854 229.7439 128.2492 15.38629628163291
JAISAT-1                
1 44419U 19038F   22158.87400183  .00005108  00000+0  25941-3 0  9999
2 44419  97.6351 128.9216 0020076 159.0419 201.1641 15.17178883161606
DUCHIFAT-3              
1 44854U 19089C   22159.35173265  .00001592  00000+0  12840-3 0  9997
2 44854  36.9648 154.3000 0007087 153.0440 342.0185 15.01016887136566
CAS-6 (TO-108)          
1 44881U 19093C   22159.46197358  .00000328  00000+0  48344-4 0  9998
2 44881  97.8920 238.7991 0014207 211.1403 148.8976 14.81717704133445
RS-44 & BREEZE-KM R/B   
1 44909U 19096E   22159.51271750  .00000012  00000+0  83423-5 0  9995
2 44909  82.5223 236.2135 0216911 340.9303  18.3765 12.79713296114412
ORBITAL FACTORY 2 (OF-2)
1 45113U 19071C   22159.24903376  .00019174  00000+0  40739-3 0  9992
2 45113  51.6381 104.6386 0010393 129.5369 230.6538 15.44976098131958
HUSKYSAT-1 (HO-107)     
1 45119U 19071J   22159.44364884  .00016522  00000+0  36276-3 0  9990
2 45119  51.6381 103.6641 0010234 127.4857 232.7062 15.44120026131979
BY70-2                  
1 45857U 20042B   22159.36519018  .00004149  00000+0  55876-3 0  9990
2 45857  97.9537 236.2912 0012044 141.6110 218.5954 14.79687744104119
SALSAT                  
1 46495U 20068K   22158.58584530  .00001894  00000+0  13960-3 0  9993
2 46495  97.7293  99.8828 0015496 314.7524  45.2440 15.04471952 92707
BY70-3                  
1 46839U 20079N   22159.41484624  .00013530  00000+0  32317-3 0  9990
2 46839  97.1973 231.6285 0005003  21.5909  41.8398 15.41618114 88853
RADFXSAT-2 (AO-109)     
1 47311U 21002C   22159.35632975  .00004877  00000+0  20344-3 0  9991
2 47311  60.6866  36.4891 0014527 325.1566  34.8570 15.25158404 77082
UVSQ-SAT                
1 47438U 21006AB  22159.43329495  .00003970  00000+0  21234-3 0  9996
2 47438  97.4375 218.6289 0010399 310.5536  49.4790 15.15595415 75910
DIY-1 (ARDUIQUBE)       
1 47963U 21022AH  22158.95695305  .00009939  00000+0  56114-3 0  9995
2 47963  97.5326  60.4281 0017745 157.8134 202.3869 15.13199302 65518
XW-3 (CAS-9)            
1 50466U 21131B   22159.47749632  .00000050  00000+0  31106-4 0  9999
2 50466  98.5804 236.7353 0005142 161.5396 198.5978 14.38497113 23620
TEVEL-3                 
1 50988U 22002E   22159.30877868  .00004491  00000+0  24863-3 0  9995
2 50988  97.4809 226.4440 0011367  97.3067 327.5855 15.14288305 22030
TEVEL-8                 
1 50989U 22002F   22159.44409987  .00004447  00000+0  24658-3 0  9997
2 50989  97.4820 226.5930 0011324  95.9780 319.9690 15.14237608 22052
TEVEL-5                 
1 50998U 22002Q   22159.46302378  .00004270  00000+0  23340-3 0  9996
2 50998  97.4805 226.6786 0012764  92.4897 324.1054 15.14757168 22066
TEVEL-6                 
1 50999U 22002R   22159.46275758  .00004278  00000+0  23380-3 0  9990
2 50999  97.4787 226.6760 0012657  92.2607 324.6062 15.14761137 22061
TEVEL-1                 
1 51013U 22002AF  22159.44144999  .00004456  00000+0  24686-3 0  9996
2 51013  97.4805 226.5601 0011098  96.4790 319.9769 15.14265649 22057
TEVEL-7                 
1 51062U 22002CG  22159.44558309  .00004447  00000+0  24666-3 0  9992
2 51062  97.4816 226.5846 0011283  95.5003 321.7929 15.14227475 22051
TEVEL-4                 
1 51063U 22002CH  22159.44599831  .00004448  00000+0  24672-3 0  9996
2 51063  97.4815 226.5819 0011221  95.6100 321.6439 15.14220274 22057
TEVEL-2                 
1 51069U 22002CP  22159.44020086  .00004457  00000+0  24679-3 0  9990
2 51069  97.4796 226.5633 0011239  96.8872 318.7922 15.14281451 22051
